{"type": "FeatureCollection", "features": [ {"type": "Feature", "properties": {"norad_id": 31568, "name": "FENGYUN 1C DEB", "group": "fengyun-1c-debris", "lat": 1.5264758527342752, "lon": -144.89142758795936, "alt_km": 957.4977194838493, "timestamp": "2025-12-02T13:52:17.545255+00:00", "meta": {"OBJECT_NAME": "FENGYUN 1C DEB", "OBJECT_ID": "1999-025BZK", "EPOCH": "2025-11-27T22:38:02.918112", "MEAN_MOTION": 14.03182798, "ECCENTRICITY": 0.0121792, "INCLINATION": 102.0468, "RA_OF_ASC_NODE": 209.318, "ARG_OF_PERICENTER": 158.3893, "MEAN_ANOMALY": 202.2464, "EPHEMERIS_TYPE": 0, "CLASSIFICATION_TYPE": "U", "NORAD_CAT_ID": 31568, "ELEMENT_SET_NO": 999, "REV_AT_EPOCH": 94372, "BSTAR": 0.0028015, "MEAN_MOTION_DOT": 4.595e-05, "MEAN_MOTION_DDOT": 0}, "tle": {"line1": "1 31568U 99025BZK 25331.94308933  .00004595  00000+0  28015-2 0  9991", "line2": "2 31568 102.0468 209.3180 0121792 158.3893 202.2464 14.03182798943726"}}, "geometry": {"type": "Point", "coordinates": [-144.89142758795936, 1.5264758527342752]}}, {"type": "Feature", "properties": {"norad_id": 31569, "name": "FENGYUN 1C DEB", "group": "fengyun-1c-debris", "lat": 65.22932655994255, "lon": -20.870143054006608, "alt_km": 880.9206589132518, "timestamp": "2025-12-02T13:52:17.545265+00:00", "meta": {"OBJECT_NAME": "FENGYUN 1C DEB", "OBJECT_ID": "1999-025BZL", "EPOCH": "2025-11-30T05:24:01.468800", "MEAN_MOTION": 13.95405103, "ECCENTRICITY": 0.01728622, "INCLINATION": 102.6164, "RA_OF_ASC_NODE": 126.885, "ARG_OF_PERICENTER": 36.2337, "MEAN_ANOMALY": 138.7821, "EPHEMERIS_TYPE": 0, "CLASSIFICATION_TYPE": "U", "NORAD_CAT_ID": 31569, "ELEMENT_SET_NO": 999, "REV_AT_EPOCH": 93504, "BSTAR": 0.0023090613, "MEAN_MOTION_DOT": 3.477e-05, "MEAN_MOTION_DDOT": 0}, "tle": {"line1": "1 31569U 99025BZL 25334.22501700  .00003477  00000+0  23091-2 0  9990", "line2": "2 31569 102.6164 126.8850 0172862  36.2337 138.7821 13.95405103935048"}}, "geometry": {"type": "Point", "coordinates": [-20.870143054006608, 65.22932655994255]}}, {"type": "Feature", "properties": {"norad_id": 31570, "name": "FENGYUN 1C DEB", "group": "fengyun-1c-debris", "lat": -10.291769063917915, "lon": 13.488710383673368, "alt_km": 832.3531749205122, "timestamp": "2025-12-02T13:52:17.545275+00:00", "meta": {"OBJECT_NAME": "FENGYUN 1C DEB", "OBJECT_ID": "1999-025BZM", "EPOCH": "2025-11-25T06:40:18.493248", "MEAN_MOTION": 14.24909801, "ECCENTRICITY": 0.01526257, "INCLINATION": 102.5663, "RA_OF_ASC_NODE": 0.7562, "ARG_OF_PERICENTER": 266.5584, "MEAN_ANOMALY": 91.8112, "EPHEMERIS_TYPE": 0, "CLASSIFICATION_TYPE": "U", "NORAD_CAT_ID": 31570, "ELEMENT_SET_NO": 999, "REV_AT_EPOCH": 63118, "BSTAR": 0.0023713757, "MEAN_MOTION_DOT": 6.183e-05, "MEAN_MOTION_DDOT": 0}, "tle": {"line1": "1 31570U 99025BZM 25329.27799182  .00006183  00000+0  23714-2 0  9993", "line2": "2 31570 102.5663   0.7562 0152625 266.5584  91.8112 14.24909801631187"}}, "geometry": {"type": "Point", "coordinates": [13.488710383673368, -10.291769063917915]}}, {"type": "Feature", "properties": {"norad_id": 31608, "name": "FENGYUN 1C DEB", "group": "fengyun-1c-debris", "lat": 31.18960194380093, "lon": 89.0611720009008, "alt_km": 529.1913223795509, "timestamp": "2025-12-02T13:52:17.545285+00:00", "meta": {"OBJECT_NAME": "FENGYUN 1C DEB", "OBJECT_ID": "1999-025BZN", "EPOCH": "2025-12-01T13:29:07.607040", "MEAN_MOTION": 14.85609369, "ECCENTRICITY": 0.01468978, "INCLINATION": 98.3795, "RA_OF_ASC_NODE": 93.1111, "ARG_OF_PERICENTER": 73.6364, "MEAN_ANOMALY": 288.0943, "EPHEMERIS_TYPE": 0, "CLASSIFICATION_TYPE": "U", "NORAD_CAT_ID": 31608, "ELEMENT_SET_NO": 999, "REV_AT_EPOCH": 98467, "BSTAR": 0.00073966432, "MEAN_MOTION_DOT": 7.721e-05, "MEAN_MOTION_DDOT": 0}, "tle": {"line1": "1 31608U 99025BZN 25335.56189360  .00007721  00000+0  73966-3 0  9999", "line2": "2 31608  98.3795  93.1111 0146897  73.6364 288.0943 14.85609369984670"}}, "geometry": {"type": "Point", "coordinates": [89.0611720009008, 31.18960194380093]}}, {"type": "Feature", "properties": {"norad_id": 31609, "name": "FENGYUN 1C DEB", "group": "fengyun-1c-debris", "lat": -78.39092909977084, "lon": 132.54331460528, "alt_km": 842.6148047957995, "timestamp": "2025-12-02T13:52:17.545295+00:00", "meta": {"OBJECT_NAME": "FENGYUN 1C DEB", "OBJECT_ID": "1999-025BZP", "EPOCH": "2025-12-02T00:53:29.141376", "MEAN_MOTION": 14.15591476, "ECCENTRICITY": 0.00951268, "INCLINATION": 99.2163, "RA_OF_ASC_NODE": 4.1997, "ARG_OF_PERICENTER": 350.8215, "MEAN_ANOMALY": 38.5046, "EPHEMERIS_TYPE": 0, "CLASSIFICATION_TYPE": "U", "NORAD_CAT_ID": 31609, "ELEMENT_SET_NO": 999, "REV_AT_EPOCH": 65933, "BSTAR": 0.0027455816, "MEAN_MOTION_DOT": 5.571e-05, "MEAN_MOTION_DDOT": 0}, "tle": {"line1": "1 31609U 99025BZP 25336.03714284  .00005571  00000+0  27456-2 0  9995", "line2": "2 31609  99.2163   4.1997 0095126 350.8215  38.5046 14.15591476659333"}}, "geometry": {"type": "Point", "coordinates": [132.54331460528, -78.39092909977084]}}, {"type": "Feature", "properties": {"norad_id": 31612, "name": "FENGYUN 1C DEB", "group": "fengyun-1c-debris", "lat": -69.53982381176537, "lon": 38.10411322400184, "alt_km": 390.8403277078605, "timestamp": "2025-12-02T13:52:17.545305+00:00", "meta": {"OBJECT_NAME": "FENGYUN 1C DEB", "OBJECT_ID": "1999-025BZS", "EPOCH": "2025-11-26T23:13:26.859936", "MEAN_MOTION": 15.63030412, "ECCENTRICITY": 0.0034124, "INCLINATION": 100.3408, "RA_OF_ASC_NODE": 239.2079, "ARG_OF_PERICENTER": 150.8693, "MEAN_ANOMALY": 209.4468, "EPHEMERIS_TYPE": 0, "CLASSIFICATION_TYPE": "U", "NORAD_CAT_ID": 31612, "ELEMENT_SET_NO": 999, "REV_AT_EPOCH": 99915, "BSTAR": 0.0020210875, "MEAN_MOTION_DOT": 0.00192851, "MEAN_MOTION_DDOT": 0}, "tle": {"line1": "1 31612U 99025BZS 25330.96767199  .00192851  00000+0  20211-2 0  9998", "line2": "2 31612 100.3408 239.2079 0034124 150.8693 209.4468 15.63030412999150"}}, "geometry": {"type": "Point", "coordinates": [38.10411322400184, -69.53982381176537]}}, {"type": "Feature", "properties": {"norad_id": 31613, "name": "FENGYUN 1C DEB", "group": "fengyun-1c-debris", "lat": 2.4591259635564273, "lon": 164.59847343441197, "alt_km": 1185.1311587045775, "timestamp": "2025-12-02T13:52:17.545315+00:00", "meta": {"OBJECT_NAME": "FENGYUN 1C DEB", "OBJECT_ID": "1999-025BZT", "EPOCH": "2025-12-01T23:46:06.044736", "MEAN_MOTION": 13.63390808, "ECCENTRICITY": 0.0342814, "INCLINATION": 98.4246, "RA_OF_ASC_NODE": 164.4531, "ARG_OF_PERICENTER": 134.5247, "MEAN_ANOMALY": 228.4457, "EPHEMERIS_TYPE": 0, "CLASSIFICATION_TYPE": "U", "NORAD_CAT_ID": 31613, "ELEMENT_SET_NO": 999, "REV_AT_EPOCH": 91615, "BSTAR": 0.0015294333, "MEAN_MOTION_DOT": 1.76e-05, "MEAN_MOTION_DDOT": 0}, "tle": {"line1": "1 31613U 99025BZT 25335.99034774  .00001760  00000+0  15294-2 0  9996", "line2": "2 31613  98.4246 164.4531 0342814 134.5247 228.4457 13.63390808916156"}}, "geometry": {"type": "Point", "coordinates": [164.59847343441197, 2.4591259635564273]}}, {"type": "Feature", "properties": {"norad_id": 31614, "name": "FENGYUN 1C DEB", "group": "fengyun-1c-debris", "lat": -63.02034069912553, "lon": 42.80442696723984, "alt_km": 604.1861241061306, "timestamp": "2025-12-02T13:52:17.545325+00:00", "meta": {"OBJECT_NAME": "FENGYUN 1C DEB", "OBJECT_ID": "1999-025BZU", "EPOCH": "2025-12-02T06:53:36.539808", "MEAN_MOTION": 14.94520418, "ECCENTRICITY": 0.00242764, "INCLINATION": 98.9743, "RA_OF_ASC_NODE": 240.5574, "ARG_OF_PERICENTER": 27.4834, "MEAN_ANOMALY": 93.6619, "EPHEMERIS_TYPE": 0, "CLASSIFICATION_TYPE": "U", "NORAD_CAT_ID": 31614, "ELEMENT_SET_NO": 999, "REV_AT_EPOCH": 96273, "BSTAR": 0.0089745639, "MEAN_MOTION_DOT": 0.00098761, "MEAN_MOTION_DDOT": 0}, "tle": {"line1": "1 31614U 99025BZU 25336.28722847  .00098761  00000+0  89746-2 0  9995", "line2": "2 31614  98.9743 240.5574 0024276  27.4834  93.6619 14.94520418962732"}}, "geometry": {"type": "Point", "coordinates": [42.80442696723984, -63.02034069912553]}}, {"type": "Feature", "properties": {"norad_id": 31615, "name": "FENGYUN 1C DEB", "group": "fengyun-1c-debris", "lat": 42.9408162464121, "lon": -143.97388167851767, "alt_km": 873.0764528993423, "timestamp": "2025-12-02T13:52:17.545335+00:00", "meta": {"OBJECT_NAME": "FENGYUN 1C DEB", "OBJECT_ID": "1999-025BZV", "EPOCH": "2025-12-01T02:05:59.722656", "MEAN_MOTION": 14.34983407, "ECCENTRICITY": 0.01658406, "INCLINATION": 99.1386, "RA_OF_ASC_NODE": 25.8337, "ARG_OF_PERICENTER": 351.1671, "MEAN_ANOMALY": 8.6603, "EPHEMERIS_TYPE": 0, "CLASSIFICATION_TYPE": "U", "NORAD_CAT_ID": 31615, "ELEMENT_SET_NO": 999, "REV_AT_EPOCH": 65111, "BSTAR": 0.0030347503, "MEAN_MOTION_DOT": 0.00010054, "MEAN_MOTION_DDOT": 0}, "tle": {"line1": "1 31615U 99025BZV 25335.08749679  .00010054  00000+0  30348-2 0  9998", "line2": "2 31615  99.1386  25.8337 0165840 351.1671   8.6603 14.34983407651110"}}, "geometry": {"type": "Point", "coordinates": [-143.97388167851767, 42.9408162464121]}}, {"type": "Feature", "properties": {"norad_id": 31618, "name": "FENGYUN 1C DEB", "group": "fengyun-1c-debris", "lat": -2.0761493909812563, "lon": 119.15462039270547, "alt_km": 711.9372608691201, "timestamp": "2025-12-02T13:52:17.545345+00:00", "meta": {"OBJECT_NAME": "FENGYUN 1C DEB", "OBJECT_ID": "1999-025BZY", "EPOCH": "2025-12-02T03:44:31.062048", "MEAN_MOTION": 14.20996595, "ECCENTRICITY": 0.0157431, "INCLINATION": 99.4428, "RA_OF_ASC_NODE": 118.358, "ARG_OF_PERICENTER": 356.0211, "MEAN_ANOMALY": 3.9701, "EPHEMERIS_TYPE": 0, "CLASSIFICATION_TYPE": "U", "NORAD_CAT_ID": 31618, "ELEMENT_SET_NO": 999, "REV_AT_EPOCH": 70114, "BSTAR": 0.00030913747, "MEAN_MOTION_DOT": 7.08e-06, "MEAN_MOTION_DDOT": 0}, "tle": {"line1": "1 31618U 99025BZY 25336.15591507  .00000708  00000+0  30914-3 0  9990", "line2": "2 31618  99.4428 118.3580 0157431 356.0211   3.9701 14.20996595701145"}}, "geometry": {"type": "Point", "coordinates": [119.15462039270547, -2.0761493909812563]}}]}